LEMUR-2-ANDIS           
1 42838U 17042P   26068.55941107  .00023598  00000+0  79875-3 0  9998
2 42838  97.3659 249.7950 0009101   4.3248 355.8070 15.30557934473198
STARLINK-2143           
1 47733U 21017M   26068.68949480  .00015853  00000+0  54588-3 0  9999
2 47733  53.1604 216.7243 0000718  99.8230 260.2852 15.30220114277715
